OBJECT_NAME,OBJECT_ID,EPOCH,MEAN_MOTION,ECCENTRICITY,INCLINATION,RA_OF_ASC_NODE,ARG_OF_PERICENTER,MEAN_ANOMALY,EPHEMERIS_TYPE,CLASSIFICATION_TYPE,NORAD_CAT_ID,ELEMENT_SET_NO,REV_AT_EPOCH,BSTAR,MEAN_MOTION_DOT,MEAN_MOTION_DDOT,OBJECT_TYPE
STARLINK-35605,2025-240E,2026-03-21T02:06:06.928416,15.30219295,.00011162,53.1604,9.8621,93.1600,266.9529,0,U,66150,999,2373,.6560746E-3,.19133E-3,0,Active
STARLINK-35540,2025-240F,2026-03-21T02:53:03.687648,15.30221664,.00012541,53.1619,9.3524,97.7026,262.4117,0,U,66151,999,2374,.63829244E-3,.18605E-3,0,Active
STARLINK-35455,2025-240G,2026-03-21T02:22:49.686816,15.30225015,.00012951,53.1607,9.9396,93.7701,266.3448,0,U,66152,999,2373,.61359934E-3,.17872E-3,0,Active
STARLINK-34752,2025-240H,2026-03-21T02:48:39.662208,15.30217528,.00013659,53.1613,10.0500,101.1429,258.9726,0,U,66153,999,2373,.65040907E-3,.18964E-3,0,Active
STARLINK-34625,2025-240J,2026-03-21T02:19:48.556128,15.30221240,.00011835,53.1614,9.9219,82.5204,277.5931,0,U,66154,999,2378,.14122157E-2,.41729E-3,0,Active
STARLINK-35580,2025-240K,2026-03-21T04:59:01.087008,15.30207460,.00012593,53.1614,9.1887,89.4004,270.7141,0,U,66155,999,2375,.14403722E-2,.42555E-3,0,Active
STARLINK-35621,2025-240L,2026-03-21T02:39:32.869440,15.30222563,.00012488,53.1615,10.0061,91.9025,268.2119,0,U,66156,999,2373,.67587754E-3,.19725E-3,0,Active
STARLINK-35594,2025-240M,2026-03-21T01:28:07.579776,15.30220413,.00014094,53.1616,9.6931,110.7010,249.4142,0,U,66157,999,2373,.80380338E-3,.23538E-3,0,Active
STARLINK-35587,2025-240N,2026-03-21T02:16:45.258528,15.30222676,.00011517,53.1607,9.9099,84.5175,275.5958,0,U,66158,999,2373,.74582671E-3,.2181E-3,0,Active
STARLINK-35586,2025-240P,2026-03-21T02:42:35.227008,15.30221621,.00013434,53.1612,10.0166,96.1406,263.9748,0,U,66159,999,2373,.70469941E-3,.20584E-3,0,Active
STARLINK-35636,2025-240Q,2026-03-21T02:41:04.011936,15.30221535,.00013066,53.1612,10.0129,87.5065,272.6086,0,U,66160,999,2373,.64888248E-3,.18921E-3,0,Active
STARLINK-35635,2025-240R,2026-03-21T02:18:16.553952,15.30225344,.00012254,53.1608,9.9163,84.7922,275.3219,0,U,66161,999,2373,.8971325E-3,.26326E-3,0,Active
STARLINK-35633,2025-240S,2026-03-21T00:19:54.316704,15.30218277,.00012597,53.1614,10.0989,85.1554,274.9591,0,U,66162,999,2372,.69629891E-3,.20331E-3,0,Active
STARLINK-35607,2025-240T,2026-03-21T01:46:08.741856,15.27595144,.00157681,53.1619,9.7620,344.0410,16.0091,0,U,66163,999,2373,-.72797813E-1,-.18004E-1,0,Active
STARLINK-35614,2025-240U,2026-03-21T02:44:06.346176,15.30216793,.00014073,53.1622,10.0156,87.0944,273.0218,0,U,66164,999,2373,.56565068E-3,.16439E-3,0,Active
STARLINK-35575,2025-240V,2026-03-20T18:43:12.407808,15.30205449,.00010592,53.1596,11.4861,90.8778,269.2345,0,U,66165,999,2368,.26550229E-3,.7514E-4,0,Active
STARLINK-35624,2025-240W,2026-03-21T02:57:37.066752,15.30212826,.0001169,53.1625,9.3596,84.0865,276.0269,0,U,66166,999,2374,.43330144E-3,.12501E-3,0,Active
STARLINK-35641,2025-240X,2026-03-21T01:37:14.496960,15.30214626,.00011813,53.1612,9.7234,101.8537,258.2597,0,U,66167,999,2373,.48940981E-3,.1417E-3,0,Active
STARLINK-35578,2025-240Y,2026-03-21T02:01:33.290976,15.30221873,.00012692,53.1612,9.8293,88.3374,271.7772,0,U,66168,999,2373,.71271889E-3,.20823E-3,0,Active
STARLINK-35638,2025-240Z,2026-03-21T02:24:20.437920,15.30261153,.00013224,53.1608,9.9297,96.8078,263.3073,0,U,66169,999,2373,.16411365E-2,.48658E-3,0,Active
STARLINK-35585,2025-240AA,2026-03-21T02:47:08.581056,15.30225669,.0001309,53.1615,10.0276,91.0534,269.0616,0,U,66170,999,2373,.63656086E-3,.18556E-3,0,Active
STARLINK-35606,2025-240AB,2026-03-21T01:47:54.071232,15.30247862,.00016446,53.1618,9.7666,126.3108,233.8045,0,U,66171,999,2373,.19963112E-2,.59327E-3,0,Active
STARLINK-35627,2025-240AC,2026-03-21T00:36:37.447488,15.30213814,.00011357,53.1613,10.1755,95.1007,265.0123,0,U,66172,999,2372,.83589898E-3,.2449E-3,0,Active
STARLINK-35634,2025-240AD,2026-03-21T01:44:50.297568,15.30221442,.00011426,53.1618,9.7568,81.8286,278.2845,0,U,66173,999,2373,.67978911E-3,.19841E-3,0,Active
HTV-X1,2025-241A,2026-03-14T08:15:41.718240,15.22910005,.00057324,51.6357,50.7100,187.3443,172.7451,0,U,66174,999,2166,.5679389E-3,.13198E-3,0,Active
GAOFEN-14 02,2025-242A,2026-03-21T07:03:06.884352,15.25854265,.00008741,97.4175,156.6210,225.7495,134.3672,0,U,66175,999,2229,.34977263E-3,.8884E-4,0,Active
STARLINK-35352,2025-243A,2026-03-20T17:31:56.647200,15.30218489,.00006988,53.1567,194.0034,63.5191,296.5881,0,U,66177,999,2234,.78575164E-3,.22998E-3,0,Active
STARLINK-35363,2025-243B,2026-03-20T14:32:57.511680,15.30212925,.000129,53.1575,194.6506,78.7127,281.4018,0,U,66178,999,2232,.10146E-2,.29822E-3,0,Active
STARLINK-35346,2025-243C,2026-03-21T00:01:49.785024,15.30218495,.00006863,53.1574,192.8484,54.4486,305.6578,0,U,66179,999,2238,.7987907E-3,.23387E-3,0,Active
STARLINK-35335,2025-243D,2026-03-21T00:06:23.088960,15.30220088,.00008624,53.1598,192.8682,68.0795,292.0298,0,U,66180,999,2238,.91419197E-3,.26831E-3,0,Active
STARLINK-35342,2025-243E,2026-03-20T14:45:06.695712,15.30224625,.0001312,53.1568,194.7014,61.5062,298.6071,0,U,66181,999,2232,.53534E-3,.15541E-3,0,Active
STARLINK-35333,2025-243F,2026-03-20T14:48:09.264096,15.30204683,.0001113,53.1582,194.7174,66.0487,294.0630,0,U,66182,999,2232,.11879E-2,.34994E-3,0,Active
STARLINK-35310,2025-243G,2026-03-21T00:17:02.024736,15.30213047,.00019706,53.1563,192.9168,79.4521,280.6702,0,U,66183,999,2238,.97207697E-3,.28554E-3,0,Active
STARLINK-35317,2025-243H,2026-03-20T17:42:35.137152,15.30212725,.00009547,53.1573,194.0559,70.2822,289.8281,0,U,66184,999,2234,.13613414E-2,.40194E-3,0,Active
STARLINK-35377,2025-243J,2026-03-20T14:49:40.549152,15.30209195,.0002576,53.1578,194.7259,300.5654,59.5093,0,U,66185,999,2232,.99753E-3,.29311E-3,0,Active
STARLINK-35365,2025-243K,2026-03-20T08:27:22.878432,15.30206368,.00013776,53.1538,195.9136,90.9635,269.1524,0,U,66186,999,2228,.68154326E-3,.19884E-3,0,Active
STARLINK-35350,2025-243L,2026-03-21T00:18:32.705856,15.30211734,.00010578,53.1555,192.9277,78.5299,281.5821,0,U,66187,999,2238,.7848237E-3,.22965E-3,0,Active
STARLINK-35041,2025-243M,2026-03-20T14:29:55.212864,15.30198600,.0001509,53.1672,194.6425,301.5320,58.5534,0,U,66188,999,2232,.41523E-3,.11958E-3,0,Active
STARLINK-34694,2025-243N,2026-03-20T17:28:54.412320,15.30210799,.00014721,53.1604,193.9933,80.6122,279.5045,0,U,66189,999,2234,.69681236E-3,.20342E-3,0,Active
STARLINK-34863,2025-243P,2026-03-20T14:39:02.143872,15.30201427,.0000925,53.1579,194.6808,76.2571,283.8533,0,U,66190,999,2232,.3948E-3,.11352E-3,0,Active
STARLINK-35061,2025-243Q,2026-03-20T16:31:19.742016,15.30212496,.0002253,53.1563,194.4543,67.6939,292.4301,0,U,66191,999,2233,.65190819E-3,.19006E-3,0,Active
STARLINK-34937,2025-243R,2026-03-21T00:26:08.871936,15.30210154,.00012951,53.1588,192.9591,89.1236,270.9913,0,U,66192,999,2238,.76560149E-3,.22391E-3,0,Active
STARLINK-35197,2025-243S,2026-03-21T01:00:56.070432,15.30219361,.00014864,53.1588,192.3965,91.6005,268.5166,0,U,66193,999,2239,.75656199E-3,.22128E-3,0,Active
STARLINK-35374,2025-243T,2026-03-21T01:05:29.735520,15.30210056,.00013552,53.1582,192.4161,95.6943,264.4212,0,U,66194,999,2239,.81978168E-3,.24006E-3,0,Active
STARLINK-34813,2025-243U,2026-03-20T17:19:47.402688,15.30216351,.00009972,53.1607,193.9543,86.5382,273.5733,0,U,66195,999,2234,.1572092E-2,.46517E-3,0,Active
STARLINK-35409,2025-243V,2026-03-20T17:24:20.297088,15.30239926,.00023789,53.1646,193.9775,320.3657,39.7170,0,U,66196,999,2234,.12087637E-2,.35658E-3,0,Active
STARLINK-35518,2025-243X,2026-03-20T17:33:27.633312,15.30233246,.00010519,53.1607,194.0135,333.2760,26.8186,0,U,66197,999,2234,.10904259E-2,.32109E-3,0,Active
STARLINK-35259,2025-243W,2026-03-20T16:40:26.171904,15.30190316,.00003792,53.1569,194.4895,102.7637,257.3407,0,U,66198,999,2233,.11933896E-2,.35142E-3,0,Active
STARLINK-35509,2025-243Y,2026-03-21T00:59:24.132192,15.30209426,.00006869,53.1627,192.3870,86.5391,273.5688,0,U,66199,999,2239,.10566495E-2,.31076E-3,0,Active
STARLINK-35551,2025-243Z,2026-03-21T01:03:58.581792,15.30206443,.00014725,53.1586,192.4062,96.4171,263.6998,0,U,66200,999,2239,.80562274E-3,.23582E-3,0,Active
STARLINK-35543,2025-243AA,2026-03-20T17:18:15.823008,15.30222480,.00002358,53.1628,193.9440,1.3456,358.7546,0,U,66201,999,2234,.12513769E-2,.36913E-3,0,Active
STARLINK-35534,2025-243AB,2026-03-20T14:14:41.372160,15.30228923,.0001199,53.1663,194.5719,295.9707,64.1171,0,U,66202,999,2232,-.61713E-4,-.2188E-4,0,Active
STARLINK-35548,2025-243AC,2026-03-19T14:48:28.964160,15.30189106,.00005081,53.1615,199.1416,44.0765,316.0276,0,U,66203,999,2217,.89081094E-3,.26108E-3,0,Active
STARLINK-35490,2025-243AD,2026-03-20T14:28:23.939904,15.30201046,.000045,53.1607,194.6307,55.5995,304.5049,0,U,66204,999,2232,.79892E-3,.23378E-3,0,Active
STARLINK-35748,2025-244A,2026-03-20T18:09:44.015616,15.30206690,.00008622,53.1552,178.5304,105.1104,254.9992,0,U,66206,999,2335,.93093263E-3,.2732E-3,0,Active
STARLINK-35747,2025-244B,2026-03-20T23:41:59.802144,15.30259999,.0001347,53.1617,177.7819,130.2114,229.9005,0,U,66207,999,2338,.12668376E-2,.3742E-3,0,Active
STARLINK-35751,2025-244C,2026-03-20T17:45:25.107552,15.30211726,.00011812,53.1589,178.4278,75.0376,285.0755,0,U,66208,999,2335,.12866984E-2,.37958E-3,0,Active
STARLINK-35750,2025-244D,2026-03-20T23:47:57.335712,15.30219538,.000134,53.1600,177.1512,96.2059,263.9094,0,U,66209,999,2339,.85798761E-3,.25153E-3,0,Active
STARLINK-35740,2025-244E,2026-03-20T23:52:31.058688,15.30188795,.0000931,53.1620,177.1721,78.5828,281.5277,0,U,66210,999,2339,.81087915E-3,.23725E-3,0,Active
STARLINK-35723,2025-244F,2026-03-20T15:53:07.711584,15.30212374,.00010341,53.1628,178.6489,82.2741,277.8377,0,U,66211,999,2333,.80156542E-3,.23465E-3,0,Active
STARLINK-35710,2025-244G,2026-03-20T23:25:19.331616,15.30217118,.00014607,53.1566,177.7630,78.3195,281.7970,0,U,66212,999,2338,.11405345E-2,.33591E-3,0,Active
